384P/Kowalski,e,7.2818,354.2269,37.6418,2.901585,0.1994119,0.61532627,52.5620,07/01.0/2020,2000,g 19.5,4.0
# From MPEC 2020-C98
385P/Hill,e,16.8264,357.0712,44.3279,4.287780,0.1110083,0.40122177,32.2176,07/01.0/2020,2000,g 13.0,4.0
# From MPEC 2020-C98
386P/PANSTARRS,e,15.2292,134.9479,353.2640,4.058336,0.1205541,0.41644523,354.0441,07/01.0/2020,2000,g 14.5,4.0
# From MPEC 2020-C98
387P/Boattini,e,8.9170,259.3381,162.7886,4.800819,0.0936981,0.73596870,28.0002,07/01.0/2020,2000,g 15.0,4.0
# From MPEC 2020-HN5
388P/Gibbs,e,23.8599,37.0505,42.4028,5.247216,0.0819994,0.61796123,28.1607,07/01.0/2020,2000,g 13.0,4.0
# From MPC118845
389P/Siding Spring,e,160.0661,218.8491,249.2919,5.628137,0.0738171,0.70449432,13.6371,07/01.0/2020,2000,g 16.0,4.0
# From MPEC 2020-C98
390P/Gibbs,e,18.5591,152.2793,232.3393,5.798805,0.0705824,0.70687402,7.1126,07/01.0/2020,2000,g 12.0,4.0
# From MPEC 2020-AA5
391P/Kowalski,e,21.2762,124.7303,186.6633,4.675755,0.0974824,0.12083311,81.4191,07/01.0/2020,2000,g  8.0,4.0
# From MPEC 2020-HN5
392P/LINEAR,e,4.9294,24.8855,71.9931,6.149630,0.0646295,0.68287327,5.8919,07/01.0/2020,2000,g 14.5,4.0
# From MPC118845
393P/Spacewatch-Hill,e,16.7959,36.4215,328.0054,4.783346,0.0942120,0.12014824,23.6720,07/01.0/2020,2000,g 11.0,4.0
# From MPEC 2020-KB7
394P/PANSTARRS,e,8.5295,98.1257,54.5202,4.333418,0.1092592,0.36817734,23.3357,07/01.0/2020,2000,g 16.0,2.4
# From MPEC 2020-L06
395P/Catalina-NEAT,e,3.2803,223.8066,89.8491,6.522401,0.0591688,0.37684352,327.5293,07/01.0/2020,2000,g 10.0,4.0
# From MPEC 2020-KB7
396P/,e,5.4362,136.6598,8.6731,6.825557,0.0552710,0.41645128,16.9618,07/01.0/2020,2000,g 12.0,4.0
# From MPC107687
1I/`Oumuamua,h,09/09.4886/2017,122.6778,24.5997,241.6845,1.199252,0.255240,2000,23.0,2.0
# From MPEC 2020-L06
2I/Borisov,h,12/08.5549/2019,44.0527,308.1481,209.1251,3.356649,2.006550,2000,11.0,4.0
